#dP2023  9 29  6  0  0.00000000      96 __u+U ITR00 EXT  IAC
## 2281 453600.00000000   900.00000000 60216 0.2500000000000
+  120   C06C07C08C09C10C11C12C13C14C16C19C20C21C22C23C24C25
+        C26C27C28C29C30C32C33C34C35C36C37C38C39C40C41C42C43
+        C44C45C46E02E03E04E05E07E08E09E10E11E12E13E14E15E18
+        E19E21E24E25E26E27E30E31E33E34E36G01G02G03G04G05G06
+        G07G08G09G10G11G12G13G14G15G16G17G18G19G20G21G22G23
+        G24G25G26G27G28G29G30G31G32J02J03J04R01R02R03R04R05
+        R07R08R09R11R12R13R14R15R16R17R18R19R20R21R22R24R25
+        R26  0  0  0  0  0  0  0  0  0  0  0  0  0  0  0  0
++        10  9  9 10  9 10  8  9  9 10  9  9  8  8 10  8  9
++         8  8  8  7  8  8  9  9  8  8  9 10 10  8 10  8  8
++         8  7  8  8  8  8  8  8  9  8  8  8  8  8  8  8  8
++         9  9  8  8  8  8  8  8  8  8  8  8  8  8  8  8  7
++         8  8  8  8  7  8  8  7  8  8  8  8  7  8  8  8  8
++         8  8  8  8  9  8  9  8  7  9 10  9  8  9  9  8  8
++         8  8  8  7  7  8  8  8  9 10  9 10  9  9  9  8  8
++         7  0  0  0  0  0  0  0  0  0  0  0  0  0  0  0  0
%c M  cc GPS ccc cccc cccc cccc cccc ccccc ccccc ccccc ccccc
%c cc cc ccc ccc cccc cccc cccc cccc ccccc ccccc ccccc ccccc
%f  0.0000000  0.000000000  0.00000000000  0.000000000000000
%f  0.0000000  0.000000000  0.00000000000  0.000000000000000
%i    0    0    0    0      0      0      0      0         0
%i    0    0    0    0      0      0      0      0         0
/* IAC                                ULTRA-RAPID PREDICTION
/* S/V CLOCKS ARE ALIGNED TO GNSS TIME                      
/* G:C1WC2W R:C1PC2P E:C1XC5X C:C2IC6I J:C1CC2S             
/* PCV:IGS20_2280 OL/AL:FES2004  NONE     YN ORB:CoN CLK:CoN
*  2023 09 29  9 30  0.00000000
PC06  -4117.720557  24658.065067  34005.231975     34.834052
PC07 -18079.719030  35707.640377 -13493.695649    -79.305692
PC08  -2955.885971  37939.922281 -17931.759198    322.276867
PC09   3346.763933  27037.490119  32743.351096    105.837204
PC10 -11317.772654  35899.728061 -19192.281921   -194.387630
PC11 -25636.659554   3477.027954 -10427.099934    177.387985
PC12 -25518.191852  -8315.197958   7720.956041    918.205547
PC13   1561.572599  40281.391964 -11698.712891    359.581841
PC14 -20634.055603  13750.238170 -12849.920694    493.240987
PC16 -10159.366314  21983.275751  34754.802756   -102.196979
PC19  18337.126502 -20589.948243   4261.436756   -970.761436
PC20  19953.769236  -6306.970512  18449.511342    245.142589
PC21  -9612.314745 -13061.711755 -22702.758514   -970.275179
PC22   6060.765924 -23806.086745 -13232.323932   -287.437558
PC23   2389.718516  25348.065596  11424.530343   -858.116125
PC24 -18633.065011  -6953.836958  19577.439222    442.152794
PC25 -10568.150781  14013.084801  21683.257690    221.718323
PC26 -15846.940668 -22011.637054   6630.327165   -184.515737
PC27  20046.072939  12599.076557 -14790.128288    206.134919
PC28   2367.469242  16143.696006 -22631.185957    154.871183
PC29  19113.466015 -10752.756307  17251.507418    180.945626
PC30  27865.798801   1420.101930    813.493943     -5.671587
PC32   9617.450450  13124.996842  22677.029342   -528.500954
PC33 -18258.806310  20659.358956  -4357.605567   -961.906568
PC34 -27806.878200   -465.163704  -2225.290241    269.992689
PC35  -2897.229860 -16124.374414  22579.995201    536.240804
PC36  11392.740024 -13001.200444 -21884.128801   -203.364269
PC37  14964.847365  22786.961956  -5884.045237   -839.396014
PC38  -8373.449877  33596.195831 -23913.626089    107.871720
PC39 -15208.021599  19939.338148  33904.439593     -5.012337
PC40 -25561.638395  31256.946426 -12579.565097    -38.259033
PC41  -6542.803436  24030.175044  12638.991619   -875.414414
PC42 -19602.123507   4881.475355 -19228.209891   -534.642770
PC43 -19869.478473  10362.530662 -16628.778810     41.796520
PC44 -20339.399745 -11993.147747  14844.521871    246.136381
PC45  -2851.517967 -25507.500422 -10983.031713    -30.746860
PC46  18343.782309   5626.870861 -20248.747082    -87.958172
PE02   8314.542131  22795.997735 -16939.504737     66.399014
PE03  13651.201960  12132.733899  23282.427553    -60.413344
PE04 -27083.986252   1892.183259 -11791.610891   -222.839247
PE05  -7708.502281  19109.449713  21247.287310     22.784711
PE07  24853.501911 -14739.191118  -6406.411736    -78.357702
PE08  26891.026604  -1619.464617  12248.114180   -153.642882
PE09 -24942.603922  14658.697894   6284.024665   -173.389345
PE10 -22171.874731  -1419.109236 -19574.135458   -567.329039
PE11 -15198.086290   7885.177709 -24155.752961   3012.080883
PE12 -25092.858423  -9573.785346 -12442.201255   -716.471477
PE13  15719.333739  -7239.571880  24015.739567    -19.730439
PE14 -29727.777378   9539.300777    -87.852399    354.112715
PE15  25136.356674   9917.036061  12080.893657    -57.086655
PE18  24229.206430  -1383.675826  -6708.541111    586.224734
PE19 -11019.979396 -13482.258406 -23935.617811  -1531.383769
PE21   4063.464339 -29317.732090    442.124726   -555.414225
PE24 -15050.792498  18537.827089  17471.831175   -347.828224
PE25  -4320.475679  29281.121072    -64.915646     -2.501865
PE26  -3354.710272 -20302.359496  21286.161093    236.481583
PE27  14755.703385 -19127.161793 -17103.795957   -161.904288
PE30  16614.067734   2740.831766 -24347.387492   -538.790372
PE31 -16642.211692  -2229.557779  24388.873543     -6.268157
PE33 -19315.887770 -21204.139515   7348.432245     -0.087842
PE34  19730.602837  20990.596820  -6763.503960    -69.624382
PE36   2745.677044  19907.511450 -21730.096961   -122.875401
PG01  21821.223644  14749.921488   4283.841374    164.489702
PG02  21106.599269  16090.063280  -1982.045347   -548.250285
PG03  12819.271935   9445.490095  21129.976141   -108.633946
PG04  22317.567428   2802.134726  14229.370974    169.913097
PG05  -6542.096437 -22258.345178 -13026.842973   -144.557987
PG06   4287.707997 -14889.719097  21623.185808    541.170643
PG07  20207.598435    823.975064 -16985.880494     54.140295
PG08  14688.744816   9349.749137 -20241.034072   -144.613525
PG09  25227.429443  -5628.689515   6150.379113    -46.622128
PG10 -10875.384058  21273.078594 -11063.013988    -55.312406
PG11  -8002.587346 -20732.604790  14599.106230   -391.585245
PG12 -11048.325628 -13376.647991  19859.744952   -430.185935
PG13  -4986.393225 -14321.060600 -22011.091409    578.167862
PG14  13396.218512 -18380.908184 -13552.034952    199.126779
PG15 -16474.191000  -7698.437239 -19918.070679     82.153777
PG16    503.619350  24720.940074  -9367.056757   -447.024598
PG17  20783.731249 -13623.177458   9968.213321    723.871179
PG18 -18605.108915   1165.304163 -18983.844100   -432.834750
PG19  14252.301773 -15155.746486  16109.751163    378.026548
PG20  -1238.617397 -26604.084331  -1237.080599    409.424955
PG21  19890.488925  17519.783113  -4854.132594    147.906355
PG22  10702.186543 -23423.466809  -6603.656640    112.586810
PG23 -14727.015506   9966.327002 -19663.561284     75.166080
PG24 -21750.062063 -15624.413144  -1164.342565   -332.627240
PG25 -15473.613496   1562.271319  21187.198431    470.212716
PG26  -3762.483872  26007.511881   2045.970506    226.043027
PG27   1382.790382  15556.890715 -21688.349465    -47.216982
PG28  -6044.849958  14265.285594  21551.664616    -16.929375
PG29 -25710.583351   3454.838661   5909.699402   -609.724289
PG30  13361.917414  -9044.994564 -21007.644927   -483.414470
PG31   2952.545722  19085.504870  17855.210361   -224.013767
PG32 -16898.316658  16128.582816  12621.957387   -565.298379
PJ02 -30334.400238  25995.214083  18514.344185     -4.799867
PJ03 -27938.298318  15871.728726 -22710.467887     -3.811873
PJ04 -24392.829579  33960.192333   -756.473652     70.841479
PR01  14004.781202    295.636689  21310.003822     66.634001
PR02  20026.171245 -13346.442400   8599.177019    -22.416152
PR03  14135.066611 -19339.245176  -8820.136775     86.110879
PR04    892.379485 -14321.221032 -21072.295018    204.768324
PR05 -12957.288615  -1782.420851 -21888.752222    119.783655
PR07 -13515.651150  19300.712674   9734.127263     65.713589
PR08   -468.857149  14267.256053  21181.630654    -72.743258
PR09 -10077.163597   5795.857299  22731.325432    144.874633
PR11   6741.468157  24602.907872   -620.052648   -179.058601
PR12  12230.159080  13532.478398 -17796.442602     31.796662
PR13  10573.949960  -3225.366757 -22997.844278    -39.704811
PR14   1882.374790 -20833.521460 -14568.236650     25.329565
PR15  -7176.366261 -24389.388173   2067.187582     85.789434
PR16 -12199.828485 -13717.258344  17706.521416     19.150091
PR17   6311.870340  -9056.275257  23002.408320     21.276886
PR18 -11047.823704 -12491.185939  19304.169601    104.321093
PR19 -21987.173301 -10820.979633   7108.858658   -249.021054
PR20 -21623.867476  -1088.301975 -13451.621659   -100.879289
PR21  -5485.916282   9240.094537 -23133.151210    -41.669103
PR22  11553.244326  13175.650642 -18510.635003     86.346984
PR24  21413.108778   -349.920345  13856.392129    -26.248921
PR25  -6900.424185   9017.794057 -22836.796273     30.589977
PR26   -847.733189  14561.523889  20945.385790    -22.347889
EOF
